HULIANWANG DIGUI-145    
1 67443U 26007J   26061.96567183 -.00000028  00000+0  17081-3 0  9999
2 67443  50.0083 107.1034 0000818 345.7636  14.3220 13.45561892  6652
